[{"OBJECT_NAME":"ZHUHAI-1 OHS-02","OBJECT_ID":"2018-040C","EPOCH":"2026-03-10T00:21:17.689248","MEAN_MOTION":15.24423286,"ECCENTRICITY":0.00086405,"INCLINATION":97.0498,"RA_OF_ASC_NODE":99.0102,"ARG_OF_PERICENTER":212.7451,"MEAN_ANOMALY":147.3253,"EPHEMERIS_TYPE":0,"CLASSIFICATION_TYPE":"U","NORAD_CAT_ID":43441,"ELEMENT_SET_NO":999,"REV_AT_EPOCH":9916,"BSTAR":0.00035710842,"MEAN_MOTION_DOT":8.704e-5,"MEAN_MOTION_DDOT":0},{"OBJECT_NAME":"STARLINK-30823","OBJECT_ID":"2023-171U","EPOCH":"2026-03-09T22:00:01.999584","MEAN_MOTION":15.25805743,"ECCENTRICITY":0.00012523,"INCLINATION":42.9988,"RA_OF_ASC_NODE":283.5897,"ARG_OF_PERICENTER":295.4431,"MEAN_ANOMALY":54.389,"EPHEMERIS_TYPE":0,"CLASSIFICATION_TYPE":"U","NORAD_CAT_ID":58248,"ELEMENT_SET_NO":999,"REV_AT_EPOCH":577,"BSTAR":0.0024404241,"MEAN_MOTION_DOT":0.00063934,"MEAN_MOTION_DDOT":0}]
